{"type":"FeatureCollection","features":[{"type":"Feature","properties":{"kind":"ice","name":"ATA"},"geometry":{"type":"MultiPolygon","coordinates":[[[[-161.99379882812502,-83.11875],[-163.795947265625,-82.84267578125001],[-161.82822265625003,-83.04257812499996],[-161.99379882812502,-83.11875]]],[[[-157.9875,-82.10498046875],[-158.988720703125,-81.779296875],[-157.83457031249998,-82.03076171874997],[-157.9875,-82.10498046875]]],[[[-160.46713867187503,-81.58945312500005],[-163.95122070312502,-81.39091796875002],[-160.48544921875003,-81.5669921875],[-160.46713867187503,-81.58945312500005]]],[[[-153.93046875,-80.03330078125],[-155.751171875,-79.82958984374999],[-154.02539062499997,-79.98769531250005],[-153.93046875,-80.03330078125]]],[[[-59.73393554687496,-80.344140625],[-60.58281249999999,-80.94814453125005],[-66.77114257812494,-80.29384765625007],[-61.63330078125003,-80.344140625],[-60.578808593749955,-79.74101562500006],[-59.321679687499994,-80.19619140625007],[-59.683300781249955,-80.31533203125],[-59.73393554687496,-80.344140625]]],[[[-31.118847656249955,-79.79843750000003],[-29.614453124999983,-79.90957031250002],[-32.00029296874993,-79.732421875],[-31.68041992187497,-79.63427734374999],[-31.604882812499937,-79.64472656249998],[-31.118847656249955,-79.79843750000003]]],[[[-66.17363281249999,-80.07783203125001],[-67.80874023437494,-79.5458984375],[-65.53955078125003,-79.83691406249997],[-65.50444335937499,-79.95429687499998],[-65.89902343749998,-80.04052734374997],[-65.98940429687502,-80.05400390625005],[-66.17363281249999,-80.07783203125001]]],[[[-67.26191406250001,-79.45263671875001],[-68.54892578125,-79.43740234375002],[-67.30488281249995,-79.39404296874997],[-67.26191406250001,-79.45263671875001]]],[[[-33.934179687500034,-79.32041015624999],[-34.049951171874994,-79.35712890625001],[-36.48129882812498,-79.29404296875003],[-36.60078124999998,-79.28271484375003],[-33.947167968749994,-79.30537109375004],[-33.934179687500034,-79.32041015624999]]],[[[-159.05292968749995,-79.80742187499999],[-164.281640625,-79.24550781250001],[-162.39003906250002,-78.76015625],[-159.00957031250002,-79.78046875000001],[-159.05292968749995,-79.80742187499999]]],[[[-70.33408203124998,-79.67988281250004],[-71.78354492187495,-79.44433593750001],[-66.72807617187496,-78.38369140625002],[-70.11630859375003,-79.66601562499997],[-70.33408203124998,-79.67988281250004]]],[[[167.6427734375001,-78.14140625000005],[166.0125,-78.13125],[167.6398437500001,-78.11171875000004],[167.6427734375001,-78.14140625000005]]],[[[-45.22265625000003,-78.81074218749998],[-43.62734375,-78.84609375],[-42.989990234375,-79.80126953124999],[-49.77304687499998,-80.78417968750003],[-54.35078125000001,-80.76035156249998],[-50.401562499999955,-79.51171874999997],[-50.733056640624994,-79.28271484375003],[-50.21962890625002,-78.60527343750005],[-49.08125,-78.0474609375],[-46.25786132812499,-77.80488281249997],[-43.784570312499966,-78.33632812500005],[-45.35234374999999,-78.79121093750001],[-45.22265625000003,-78.81074218749998]]],[[[-149.21811523437498,-77.336328125],[-148.92885742187497,-77.38681640624998],[-149.43867187499998,-77.37060546874996],[-149.662353515625,-77.30097656249998],[-149.51865234375003,-77.27470703125005],[-149.37543945312498,-77.27998046874997],[-149.24912109375,-77.3150390625],[-149.21811523437498,-77.336328125]]],[[[-150.3970703125,-77.36914062500001],[-150.47485351562494,-77.37373046874997],[-151.34448242187503,-77.2962890625],[-151.51162109374997,-77.27333984375004],[-150.35625,-77.3490234375],[-150.3970703125,-77.36914062500001]]],[[[167.08408203125012,-77.32167968750002],[169.3527343750001,-77.52470703124999],[166.21679687500003,-77.52460937499998],[167.08496093750003,-77.30742187500005],[167.08408203125012,-77.32167968750002]]],[[[-148.59584960937497,-77.0068359375],[-149.0146484375,-77.01914062500003],[-149.24482421875,-76.99306640625005],[-149.30253906249996,-76.91582031250003],[-148.47431640624998,-76.99775390625003],[-148.59584960937497,-77.0068359375]]],[[[-149.23066406249995,-77.1205078125],[-150.788525390625,-76.98164062500003],[-149.288330078125,-77.09316406250001],[-149.23066406249995,-77.1205078125]]],[[[-146.60673828125,-76.96132812500007],[-147.115625,-76.86621093749996],[-146.16396484374997,-76.94853515625003],[-146.60673828125,-76.96132812500007]]],[[[-149.333251953125,-76.7173828125],[-148.32080078124997,-76.77167968749998],[-149.4689453125,-76.75712890625003],[-149.333251953125,-76.7173828125]]],[[[-150.23251953124998,-76.77646484374998],[-150.65517578125002,-76.78896484375002],[-150.83046875000002,-76.76152343750005],[-150.87353515625,-76.73671875000005],[-150.084765625,-76.73515624999999],[-150.23251953124998,-76.77646484374998]]],[[[-147.58828124999997,-76.64980468750002],[-148.00107421875003,-76.57714843749996],[-147.89970703125,-76.55800781250005],[-147.76967773437497,-76.57685546874998],[-147.64912109375,-76.61083984374997],[-147.58828124999997,-76.64980468750002]]],[[[-146.79003906249994,-76.63310546874999],[-146.90781249999998,-76.71406250000004],[-147.22133789062497,-76.67089843749996],[-147.355322265625,-76.61884765625001],[-146.877880859375,-76.56328124999997],[-146.79003906249994,-76.63310546874999]]],[[[-146.69013671875,-76.24638671874999],[-147.42089843749994,-76.09023437500005],[-147.41806640625,-76.07343750000001],[-147.36064453125005,-76.06279296874997],[-146.94902343750002,-76.09814453124997],[-146.69013671875,-76.24638671874999]]],[[[-145.2380859375,-75.71123046875002],[-146.150830078125,-75.57353515625005],[-145.25224609375002,-75.68281250000001],[-145.2380859375,-75.71123046875002]]],[[[-132.39125976562502,-74.44189453124997],[-132.54628906249997,-74.49843750000004],[-132.857177734375,-74.46171875000002],[-132.83168945312502,-74.42158203125001],[-132.552490234375,-74.38662109375],[-132.36230468749997,-74.40996093750005],[-132.39125976562502,-74.44189453124997]]],[[[-131.06669921875,-74.58378906250002],[-132.162646484375,-74.42578124999997],[-130.96728515625,-74.51503906250005],[-131.06669921875,-74.58378906250002]]],[[[-127.36582031249999,-74.62265625000003],[-128.13344726562497,-74.32744140625002],[-127.23193359374999,-74.57841796874999],[-127.36582031249999,-74.62265625000003]]],[[[-116.73862304687498,-74.16503906249997],[-117.23032226562496,-74.19277343750002],[-117.36298828124998,-74.16093750000002],[-117.39829101562499,-74.1224609375],[-116.15498046875,-73.91044921874997],[-116.5708984375,-74.12568359375004],[-116.73862304687498,-74.16503906249997]]],[[[-119.54892578124999,-74.11025390625],[-119.80258789062498,-73.8146484375],[-118.87734374999995,-73.87802734375003],[-118.98979492187495,-73.96699218750004],[-119.05859375000001,-73.99765624999998],[-119.44853515624996,-74.07617187499999],[-119.54892578124999,-74.11025390625]]],[[[-120.55625,-73.75605468750005],[-120.37812,-73.85585937500005],[-120.31230468749999,-73.92197265625],[-120.27246093749996,-73.98916015625002],[-121.00244140624999,-74.32636718749998],[-121.06240234374995,-74.3373046875],[-122.28662109374996,-74.40312],[-123.34619140624999,-73.84306640625002],[-120.72221679687502,-73.75195312500001],[-120.55625,-73.75605468750005]]],[[[-20.607421875,-73.88662109375001],[-20.48901367187503,-74.49267578125003],[-22.035351562499926,-74.10654296875005],[-20.520703124999983,-73.79785156250004],[-20.607421875,-73.88662109375001]]],[[[169.84365234375,-73.60498046875],[169.70917968750004,-73.62529296875006],[169.52236328125,-73.56152343750003],[169.47949218749997,-73.53945312499998],[169.8587890625,-73.56806640625004],[169.84365234375,-73.60498046875]]],[[[-126.32988281249997,-73.28623046874999],[-123.83671875,-74.22568359374998],[-127.41435546875003,-73.51630859374997],[-126.596875,-73.27890625],[-126.32988281249997,-73.28623046874999]]],[[[-74.35444335937495,-73.09843750000002],[-74.57465820312498,-73.61132812499997],[-76.09638671874993,-73.15048828124996],[-74.223876953125,-72.99707031249997],[-74.35444335937495,-73.09843750000002]]],[[[-91.16069335937502,-73.18222656250003],[-91.67001953125003,-72.62373046875003],[-90.80712890625,-72.61064453125002],[-90.9984375,-73.13652343750005],[-91.16069335937502,-73.18222656250003]]],[[[-16.10449218750003,-72.67910156250002],[-16.516552734374955,-72.53085937500003],[-16.172509765624937,-72.6],[-16.10449218750003,-72.67910156250002]]],[[[-12.508886718749977,-72.17333984375003],[-12.96328125,-72.06445312500004],[-12.53476562499992,-72.1400390625],[-12.508886718749977,-72.17333984375003]]],[[[-98.09111328124999,-71.9125],[-95.53105468749996,-72.24873046875001],[-98.16342773437498,-72.55605468750001],[-102.31362304687502,-72.08105468749996],[-98.18916015624998,-71.82001953124998],[-98.09111328124999,-71.9125]]],[[[-60.55224609374997,-71.05292968750003],[-60.94648437499998,-70.9673828125],[-60.53593749999993,-71.04091796875007],[-60.55224609374997,-71.05292968750003]]],[[[-2.5328125,-70.76777343750001],[-2.4234375,-70.800390625],[-2.255566406249926,-70.79609375000001],[-2.092285156249972,-70.8208984375],[-2.783496093750017,-71.16748046875],[-3.574658203124983,-70.703125],[-3.537060546874955,-70.68330078125004],[-3.040039062499943,-70.6744140625],[-2.749804687499989,-70.69414062500002],[-2.5328125,-70.76777343750001]]],[[[-73.70664062499998,-70.63515625],[-76.51152343749996,-70.99082031249998],[-73.8794921875,-70.578125],[-73.70664062499998,-70.63515625]]],[[[-5.894091796874989,-70.55224609374999],[-6.437988281249972,-70.45263671875003],[-5.949511718749932,-70.43222656250005],[-5.894091796874989,-70.55224609374999]]],[[[3.036914062500045,-70.59736328125003],[2.697753906250057,-70.62353515625003],[2.62275390625004,-70.593359375],[2.584667968750011,-70.53457031250002],[3.17109375000004,-70.55390624999997],[3.036914062500045,-70.59736328125003]]],[[[-71.69501953124995,-70.26513671875003],[-71.34028320312498,-70.31748046875003],[-71.79526367187495,-70.28837890625005],[-71.69501953124995,-70.26513671875003]]],[[[72.00224609375002,-70.63261718750002],[71.64658203125006,-70.33632812500005],[72.07812,-70.60908203125001],[72.00224609375002,-70.63261718750002]]],[[[4.52587890625,-70.47871093750001],[4.069726562500051,-70.29023437499998],[4.589941406249977,-70.43251953125002],[4.52587890625,-70.47871093750001]]],[[[26.857226562500045,-70.38115234375003],[25.9541015625,-70.26142578124998],[26.87480468749999,-70.32998046875],[26.857226562500045,-70.38115234375003]]],[[[1.29931640625,-70.25517578125005],[0.94960937500008,-70.09404296874999],[1.460937500000057,-70.13564453125002],[1.29931640625,-70.25517578125005]]],[[[-74.98710937499999,-69.72783203124999],[-74.43798828125003,-69.94960937500005],[-75.80415039062498,-70.03818359374998],[-75.13637695312502,-69.740625],[-74.98710937499999,-69.72783203124999]]],[[[16.222656250000057,-70.00761718750005],[15.562597656250034,-69.86279296875003],[16.31542968750003,-69.84443359375003],[16.222656250000057,-70.00761718750005]]],[[[-71.98535156249994,-69.69843750000004],[-72.95732421874999,-69.52910156249999],[-72.33115234374998,-69.49179687500003],[-71.98535156249994,-69.69843750000004]]],[[[-61.99760742187499,-69.721875],[-62.56767578124996,-69.18046875000002],[-61.970117187499994,-69.69140625000003],[-61.99760742187499,-69.721875]]],[[[-70.05112304687498,-69.1890625],[-68.31401367187493,-70.91171875000003],[-68.24101562499999,-71.82216796875007],[-69.209326171875,-72.5341796875],[-73.05742187499996,-72.44755859375002],[-70.20600585937501,-72.227734375],[-71.66147460937495,-72.24980468750005],[-70.82099609374998,-71.90654296875002],[-72.33662109374993,-71.6322265625],[-73.99560546874994,-72.16982421875002],[-75.38271484375002,-71.82792968749999],[-72.21166992187497,-71.33505859375003],[-73.06040039062503,-71.126953125],[-72.71044921874997,-71.07294921875001],[-69.869775390625,-71.12568359375001],[-71.1900390625,-70.6595703125],[-69.61835937500001,-70.398046875],[-71.72851562500003,-70.05371093750003],[-72.13789062499995,-69.11455078125002],[-70.05273437499994,-69.13955078125004],[-70.05112304687498,-69.1890625]]],[[[-67.34892578124996,-67.76621093750003],[-67.74326171875,-67.66123046875005],[-67.29970703124997,-67.73720703124998],[-67.34892578124996,-67.76621093750003]]],[[[85.82236328125006,-66.95332031249998],[85.31445312499997,-66.7759765625],[85.9376953125001,-66.894140625],[85.82236328125006,-66.95332031249998]]],[[[-67.98847656249995,-67.4744140625],[-69.13803710937503,-67.51523437499998],[-67.71113281249995,-66.63300781250001],[-67.969482421875,-67.45029296874998],[-67.98847656249995,-67.4744140625]]],[[[96.6126953125,-66.03583984375003],[97.015625,-66.16396484375002],[96.49980468750002,-66.04589843750003],[96.6126953125,-66.03583984375003]]],[[[92.60136718750007,-65.80830078125004],[92.24814453125006,-65.73994140625004],[92.66962890625004,-65.77480468750005],[92.60136718750007,-65.80830078125004]]],[[[100.98144531249997,-65.67753906250005],[100.27031250000007,-65.60332031250002],[101.23837890625012,-65.56455078125002],[100.98144531249997,-65.67753906250005]]],[[[103.39726562500002,-65.44531249999997],[102.75957031250002,-65.16787109375002],[103.37890625000003,-65.42646484375004],[103.39726562500002,-65.44531249999997]]],[[[-63.18056640624994,-64.46953125000005],[-62.836523437500034,-64.571875],[-64.2720703125,-64.69755859375005],[-63.27070312500001,-64.38066406249997],[-63.18056640624994,-64.46953125000005]]],[[[-62.32578124999998,-64.4244140625],[-62.78178710937496,-64.47900390625003],[-62.451416015625,-64.01240234375],[-62.3037109375,-64.40136718750001],[-62.32578124999998,-64.4244140625]]],[[[-57.84599609375002,-64.05390625000001],[-57.22226562499995,-64.22138671875004],[-58.438085937500034,-64.11347656249998],[-57.82695312499996,-63.94921875],[-57.84599609375002,-64.05390625000001]]],[[[-55.87255859374997,-63.535644531250036],[-55.95673828124998,-63.57998046875001],[-56.178369140624994,-63.51328125000001],[-56.235205078125034,-63.46884765625002],[-55.71918945312498,-63.49208984374996],[-55.87255859374997,-63.535644531250036]]],[[[-57.020654296874994,-63.3728515625],[-59.005322265624955,-64.19492187499998],[-58.786083984374955,-64.52421874999999],[-59.963085937499926,-64.43134765625],[-62.14531249999999,-65.33173828125001],[-62.005029296874994,-66.112890625],[-60.56538085937498,-65.97939453124998],[-61.02841796874998,-66.3365234375],[-62.68203125,-66.23730468750003],[-62.62890625,-66.70615234374998],[-63.752539062500034,-66.277734375],[-63.754736328125034,-66.87294921875004],[-65.50312,-67.37724609375002],[-65.63950195312498,-68.13056640625001],[-64.82949218749997,-68.12744140625],[-64.89594726562501,-68.16835937499998],[-65.36518554687495,-68.2875],[-65.45200195312495,-68.33671874999999],[-65.158349609375,-68.61796875],[-62.933300781249926,-68.44257812499998],[-63.77343750000003,-68.63183593749999],[-61.96108398437502,-70.12011718749997],[-62.377783203125006,-70.36484375],[-62.232275390625034,-70.42441406249996],[-62.00078124999993,-70.49716796875003],[-61.50468749999993,-70.49052734375002],[-61.96108398437502,-70.90058593749998],[-60.962255859375006,-71.24462890625],[-61.95878906249999,-71.65781249999998],[-61.03505859375002,-71.82001953124998],[-61.64453125,-71.862890625],[-61.938916015624955,-71.90361328125005],[-62.25664062500002,-72.017578125],[-60.71943359375001,-72.07265625000002],[-61.2861328125,-72.60078124999997],[-60.00976562500003,-72.937890625],[-62.00830078124994,-73.14765625000001],[-60.79028320312497,-73.71181640625001],[-61.84277343749997,-74.28964843750005],[-60.704296874999955,-74.30712890624997],[-64.27954101562503,-75.29287109375005],[-63.36337890624998,-75.45146484375005],[-70.21015624999995,-76.67412109374999],[-77.28706054687493,-76.70166015625],[-75.38691406249998,-77.47421875],[-74.58061523437493,-77.47802734375],[-73.47822265624998,-77.535546875],[-72.85195312500002,-77.59023437500002],[-74.04213867187502,-78.109375],[-80.6015625,-77.75195312500003],[-80.888525390625,-77.79765625],[-81.10312,-77.84179687500003],[-81.58095703124997,-77.84609375000002],[-77.45244140624996,-78.56035156250005],[-80.29228515624996,-78.82275390625003],[-83.77900390624993,-77.98359375000004],[-83.226953125,-78.40156250000003],[-83.76274414062499,-78.46113281249998],[-80.89199218750002,-79.50185546875001],[-76.21767578124994,-79.38720703125],[-76.55786132812497,-79.90351562500004],[-79.66040039062503,-79.996875],[-76.40732421875003,-80.09492187500004],[-75.07558593749997,-80.86005859375004],[-70.68789062499994,-80.62626953125002],[-62.35371093749998,-81.57666015625001],[-66.13383789062496,-81.95341796875003],[-64.91958007812502,-82.37050781250001],[-60.52773437499994,-82.19990234374998],[-62.73564453124999,-82.52734374999999],[-61.218408203124966,-82.991796875],[-61.42529296875003,-83.39560546875003],[-59.516015625,-83.45839843750004],[-53.98608398437494,-82.20058593750002],[-46.25805664062503,-81.94697265625005],[-46.516748046874966,-82.45458984375],[-46.17529296874994,-82.51162109374998],[-45.78857421875003,-82.49492187500005],[-38.77172851562494,-80.88232421874996],[-23.57446289062497,-79.96484375],[-36.265625,-78.61552734375],[-34.07578125,-77.425390625],[-28.933642578125017,-76.37031250000001],[-18.304589843749966,-75.43134765625003],[-18.749218749999955,-75.24208984375002],[-17.43583984374999,-74.37910156249998],[-14.57382812499992,-73.9375],[-16.220117187499937,-73.91572265624998],[-16.435205078124994,-73.42568359374998],[-11.496972656249966,-72.41289062499997],[-11.009228515624983,-71.75791015625003],[-12.351318359374943,-71.38974609374998],[-10.825439453124943,-71.5533203125],[-10.270605468749977,-70.93574218750004],[-8.646484374999943,-71.67275390625],[-7.713720703124977,-71.54648437500003],[-7.752734374999932,-70.84277343750003],[-5.936328124999989,-70.71269531249999],[-5.694726562499966,-70.74531249999997],[-5.587890624999972,-70.85673828125002],[-6.11748046874996,-71.32597656250005],[-1.067773437499966,-71.265625],[-0.543164062499926,-71.71269531250005],[9.141601562500028,-70.18369140625003],[11.701269531250034,-70.76660156249996],[13.065625,-70.05361328125001],[18.124609375,-70.54033203125005],[19.009375,-70.21210937499997],[19.409277343749977,-70.91699218750004],[21.07080078125,-70.84345703124998],[21.18603515625003,-70.68056640625002],[21.337304687500023,-70.49511718749997],[21.70498046875005,-70.25849609375001],[22.97900390625,-70.81035156249999],[24.02412109375001,-70.41337890625002],[26.498828125000045,-71.01953124999997],[32.6212890625001,-70.00058593750003],[32.80976562500004,-69.909375],[32.911523437499994,-69.73369140625002],[32.989355468750006,-69.62421875000001],[32.64160156249997,-68.86894531249997],[32.77617187500002,-68.78310546875],[33.12148437500005,-68.68916015625004],[33.465625,-68.670703125],[35.35703125,-69.68134765625001],[38.885546875000074,-70.171875],[40.215625,-68.80488281249998],[46.559667968750006,-67.26816406249999],[48.37451171875003,-67.98808593750002],[49.219335937500006,-67.22685546875002],[48.465234375,-67.04345703124996],[50.55302734375002,-67.19433593749997],[50.332421875,-66.44462890624999],[53.671777343749994,-65.85869140624999],[57.18544921875005,-66.61328124999997],[56.145898437499994,-66.62607421875],[56.291894531249994,-66.72109375],[56.45322265625006,-66.77978515624997],[56.47968750000004,-66.85917968749999],[56.39140625000002,-66.97382812499998],[55.80273437499997,-67.19931640625],[56.15488281250006,-67.26455078125005],[69.55917968750006,-67.76318359375003],[69.98222656250002,-68.46425781250005],[69.6294921875,-69.23164062499997],[68.90625,-69.37275390625004],[69.08261718750006,-69.86660156250001],[67.26796875,-70.27314453124997],[69.2501953125001,-70.4310546875],[66.49765625,-73.12548828125003],[67.32207031250002,-73.30029296875001],[71.27675781250005,-71.62392578125],[73.3248046875,-69.84892578125005],[75.63554687500002,-69.84892578125005],[79.03515625000003,-68.175390625],[84.48515625000002,-67.11445312500004],[92.0734375000001,-66.50791015625],[99.37011718749997,-66.64824218749999],[102.67421875000005,-65.86513671875007],[109.46279296875,-66.90869140625003],[110.90673828125003,-66.07666015625],[113.09941406250007,-65.79990234375],[115.63535156250012,-66.77119140625],[114.0265625000001,-67.44121093749999],[120.37480468750002,-66.98378906250005],[119.1330078125001,-67.370703125],[125.865625,-66.36445312500001],[128.43056640625005,-67.119140625],[130.57851562500005,-66.20859375000005],[135.35195312500005,-66.12714843749998],[143.73037109375005,-66.87675781250002],[144.62119140625006,-67.14140625000002],[143.97734375000002,-67.86455078124999],[145.97519531250006,-67.62421874999997],[147.09365234375,-68.36865234375001],[153.08183593750007,-68.8568359375],[153.90800781250007,-68.32314453124998],[155.52031250000007,-69.02441406250003],[159.78398437500007,-69.521875],[162.18945312500003,-71.03955078124997],[162.02197265625003,-70.43984375],[162.2160156250001,-70.33398437500001],[162.67480468749997,-70.30458984374998],[170.43574218750004,-71.41875],[170.60332031250007,-71.60400390625003],[170.7796875,-71.7451171875],[170.85908203125004,-71.86855468750001],[170.03007812500007,-72.11552734375005],[170.20644531250005,-72.56533203125002],[168.4284179687501,-72.3833984375],[169.82861328124997,-72.72880859375003],[169.84482421875006,-72.79462890625003],[169.71210937500004,-72.87695312500001],[169.54501953125012,-73.050390625],[166.45283203125004,-72.93603515624997],[167.70908203125006,-73.39423828124997],[165.34697265625007,-73.87939453124996],[164.81298828125003,-73.39677734375005],[165.40859375,-74.55859375000003],[163.3978515625,-74.38212890625006],[162.41005859375005,-75.23759765624999],[160.91074218750012,-75.33466796875004],[162.81572265625007,-75.84619140624999],[162.45029296875006,-76.95566406249998],[164.49150390625007,-77.95400390625005],[164.42968749999997,-78.0421875],[164.10781250000005,-78.14677734374999],[163.97763671875006,-78.22382812500005],[165.41757812500006,-78.0421875],[167.0490234375001,-78.68603515624997],[161.66923828125002,-78.5361328125],[161.95146484375002,-79.02998046874998],[160.87353515624997,-79.04970703125],[159.871875,-79.78984375000006],[160.5587890625001,-80.01054687499999],[158.57363281250005,-80.4234375],[159.0651367187501,-80.44257812499998],[160.5421875000001,-80.425],[160.63730468750006,-80.44990234374997],[160.46982421875006,-81.34062],[163.68007812500005,-82.18730468749999],[162.42656250000002,-82.31445312499996],[161.16650390624997,-82.40781249999996],[161.28320312499997,-82.48994140625],[164.74716796875012,-82.35439453125001],[168.60732421875005,-83.06533203124998],[167.6576171875,-83.27216796875003],[167.84277343749997,-83.31621093750002],[168.11005859375004,-83.36201171875003],[179.4030273437501,-84.20615234374996],[179.62031250000015,-84.26835937500002],[180,-84.35156250000001],[180,-85],[-180,-85],[-180,-84.35156250000001],[-178.389501953125,-84.3375],[-156.45913085937502,-85],[-165.13535156250003,-84.40986328124998],[-163.7576171875,-84.30546875000003],[-174.23593749999998,-82.79345703125001],[-159.44438476562496,-83.54316406249998],[-153.00986328125003,-82.44960937500005],[-153.88261718750002,-82.17656250000002],[-154.717431640625,-81.94072265625002],[-153.95664062499998,-81.70019531249996],[-157.03251953125002,-81.31914062500005],[-156.81508789062497,-81.23095703125001],[-156.52822265624997,-81.16230468749998],[-148.02343749999994,-80.83574218749997],[-150.575390625,-80.35371093750001],[-148.17651367187497,-79.77587890624997],[-156.11455078125,-78.74462890625001],[-156.46933593750003,-78.63535156250005],[-154.29301757812496,-78.25908203125005],[-158.285888671875,-77.95078125000003],[-158.00307617187497,-77.09121093750005],[-149.71772460937498,-77.79746093749996],[-148.155712890625,-77.4623046875],[-148.77749023437502,-77.125],[-145.51572265625003,-77.19921875000003],[-146.77666015625,-76.50703124999997],[-149.654248046875,-76.36533203124998],[-145.44208984374995,-76.40917968750003],[-145.642333984375,-76.32568359374997],[-145.860400390625,-76.26660156250001],[-146.38300781249998,-76.09970703125003],[-143.57426757812502,-75.56357421874996],[-140.87431640625002,-75.74589843749999],[-141.22333984374998,-75.5458984375],[-135.36206054687506,-74.69042968749999],[-115.22260742187494,-74.48740234375],[-114.62373046874997,-73.90292968750003],[-113.332958984375,-74.45419921875],[-114.11044921874993,-74.98183593750002],[-111.69624023437497,-74.79218750000001],[-111.62998046874998,-74.18144531250003],[-110.30708007812503,-74.36669921875003],[-111.35878906249997,-75.21992187500004],[-98.55786132812494,-75.18974609375002],[-102.86274414062498,-73.78359375],[-98.89614257812494,-73.61113281250002],[-102.90878906249995,-73.28515625000004],[-103.11010742187501,-72.72119140624999],[-90.92094726562502,-73.31914062500005],[-88.77998046874993,-72.68300781250002],[-88.52690429687499,-72.70234374999997],[-88.19409179687494,-72.7875],[-88.41938476562493,-73.22900390624997],[-82.18349609374997,-73.85683593749998],[-81.60610351562502,-73.79570312500005],[-81.308740234375,-73.73828124999999],[-81.17641601562497,-73.24882812500002],[-81.02431640624997,-73.23554687499997],[-80.33637695312498,-73.41416015625003],[-80.44223632812495,-72.94453125000001],[-76.85048828125,-73.46044921874996],[-77.04892578125,-73.84414062500005],[-68.820947265625,-73.10546875000003],[-66.827734375,-72.0904296875],[-68.70795898437498,-69.43222656249998],[-66.97490234374996,-69.16103515625007],[-67.021240234375,-69.02871093750002],[-67.18759765624995,-68.97441406250006],[-67.39052734375,-68.86123046875],[-66.67724609375,-67.56025390624998],[-67.54453125000003,-67.53466796875003],[-67.49335937499998,-67.11279296874996],[-66.49868164062494,-67.28906249999999],[-66.50361328124998,-66.68984375000004],[-64.51430664062497,-65.95957031250003],[-63.76025390625,-65.03349609375002],[-57.07670898437496,-63.2625],[-57.020654296874994,-63.3728515625]],[[-180,-84.6],[-175,-84.6],[-170,-84.6],[-165,-84.6],[-160,-84.6],[-155,-84.6],[-150,-84.6],[-145,-84.6],[-140,-84.6],[-135,-84.6],[-130,-84.6],[-125,-84.6],[-120,-84.6],[-115,-84.6],[-110,-84.6],[-105,-84.6],[-100,-84.6],[-95,-84.6],[-90,-84.6],[-85,-84.6],[-80,-84.6],[-75,-84.6],[-70,-84.6],[-65,-84.6],[-60,-84.6],[-55,-84.6],[-50,-84.6],[-45,-84.6],[-40,-84.6],[-35,-84.6],[-30,-84.6],[-25,-84.6],[-20,-84.6],[-15,-84.6],[-10,-84.6],[-5,-84.6],[0,-84.6],[5,-84.6],[10,-84.6],[15,-84.6],[20,-84.6],[25,-84.6],[30,-84.6],[35,-84.6],[40,-84.6],[45,-84.6],[50,-84.6],[55,-84.6],[60,-84.6],[65,-84.6],[70,-84.6],[75,-84.6],[80,-84.6],[85,-84.6],[90,-84.6],[95,-84.6],[100,-84.6],[105,-84.6],[110,-84.6],[115,-84.6],[120,-84.6],[125,-84.6],[130,-84.6],[135,-84.6],[140,-84.6],[145,-84.6],[150,-84.6],[155,-84.6],[160,-84.6],[165,-84.6],[170,-84.6],[175,-84.6],[180,-84.6],[-180,-84.6]]],[[[-55.528027343749955,-63.17353515624998],[-55.07519531249997,-63.32431640624997],[-56.50532226562501,-63.334277343750045],[-55.528710937499994,-63.15683593750005],[-55.528027343749955,-63.17353515624998]]],[[[-56.059960937499966,-63.07851562499999],[-56.614160156249966,-63.045117187500026],[-56.051025390625,-63.05468750000002],[-56.059960937499966,-63.07851562499999]]],[[[-60.625,-62.56005859374997],[-59.84956054687498,-62.61494140625005],[-61.14980468749994,-62.63417968749997],[-60.731835937499966,-62.491015625000024],[-60.625,-62.56005859374997]]],[[[-57.978417968749994,-61.911914062499996],[-57.639550781249966,-62.02041015624999],[-59.00371093749996,-62.20976562500002],[-58.26518554687496,-61.9533203125],[-57.978417968749994,-61.911914062499996]]],[[[-55.165429687499966,-61.22041015624998],[-54.67099609374995,-61.11699218750005],[-54.7099609375,-61.139746093749984],[-55.05761718750003,-61.16865234375001],[-55.165429687499966,-61.22041015624998]]],[[[-45.7177734375,-60.52089843750003],[-45.173681640625006,-60.733007812499984],[-45.83417968750001,-60.54345703125001],[-45.7177734375,-60.52089843750003]]]]}},{"type":"Feature","properties":{"kind":"ice","name":"GRL"},"geometry":{"type":"MultiPolygon","coordinates":[[[[-46.266699218750006,60.781396484374994],[-46.789990234374955,60.779833984375045],[-46.254492187500006,60.841552734375],[-46.266699218750006,60.781396484374994]]],[[[-51.01367187499994,69.55249023437497],[-51.350292968749955,69.85478515625002],[-50.67900390624999,69.84853515625],[-50.970410156249926,69.58300781249997],[-51.01367187499994,69.55249023437497]]],[[[-52.73115234375001,69.94472656250005],[-51.90019531249999,69.60478515625007],[-53.75434570312498,69.26015625000002],[-54.91914062499998,69.71362304687503],[-54.322607421875034,69.94189453125],[-54.705957031249966,70.25615234374999],[-53.102929687499966,70.14086914062503],[-52.73115234375001,69.94472656250005]]],[[[-51.67514648437498,70.855224609375],[-52.14804687499995,70.90439453124998],[-51.60693359375003,70.86884765625001],[-51.67514648437498,70.855224609375]]],[[[-25.43232421875001,70.92133789062495],[-28.03525390624995,70.48681640625],[-25.458251953124943,70.94252929687502],[-25.43232421875001,70.92133789062495]]],[[[-53.53520507812493,71.04082031250005],[-53.9578125,71.12773437499999],[-53.48779296874997,71.05629882812502],[-53.53520507812493,71.04082031250005]]],[[[-55.01689453124999,72.79111328125003],[-56.214794921874955,72.71918945312495],[-55.03300781249999,72.82050781249998],[-55.01689453124999,72.79111328125003]]],[[[-18.000537109374932,75.40732421875003],[-17.391992187499937,75.03691406250007],[-18.891308593749955,75.07216796874997],[-18.229882812499937,75.37207031250006],[-18.000537109374932,75.40732421875003]]],[[[-18.58261718749995,76.042333984375],[-19.05888671874999,76.694970703125],[-18.882470703124937,76.70380859375001],[-18.732617187499955,76.64204101562495],[-18.662011718749966,76.40390625000003],[-18.58261718749995,76.042333984375]]],[[[-71.667333984375,77.32529296874998],[-72.02353515625,77.31645507812505],[-72.3744140625,77.35541992187498],[-72.49492187499993,77.38554687499999],[-71.46708984374996,77.353662109375],[-71.667333984375,77.32529296874998]]],[[[-18.99716796874995,77.97377929687502],[-19.31469726562497,78.34418945312498],[-18.882470703124937,78.114892578125],[-18.99716796874995,77.97377929687502]]],[[[-17.6125,79.82587890624995],[-19.13828125,79.85234375000002],[-17.400830078124983,79.94047851562502],[-17.6125,79.82587890624995]]],[[[-18.664746093749983,81.84648437500002],[-19.610546874999926,82.078125],[-18.812695312499926,81.94946289062503],[-18.664746093749983,81.84648437500002]]],[[[-44.86455078124999,82.08364257812502],[-47.351220703124966,82.59921874999998],[-44.77636718749997,82.24238281250004],[-44.86455078124999,82.08364257812502]]],[[[-29.952880859375,83.56484374999997],[-25.795068359374994,83.26098632812497],[-32.03271484374997,82.98344726562502],[-25.12338867187495,83.15961914062501],[-21.520654296874966,82.59541015625001],[-29.887402343749983,82.05483398437502],[-21.130322265624926,81.93422851562505],[-23.11772460937499,80.77817382812498],[-19.62993164062499,81.63989257812503],[-11.425537109374972,81.480615234375],[-16.76059570312492,80.573388671875],[-16.587792968749994,80.51123046875006],[-16.42944335937497,80.48422851562506],[-15.937255859374972,80.42763671874997],[-15.9326171875,80.3951171875],[-16.167773437499932,80.32939453125005],[-16.48876953124997,80.25195312499997],[-20.150146484375,80.01123046874997],[-18.99199218749996,79.17836914062502],[-21.133740234374926,78.65864257812501],[-21.729589843749977,77.70854492187499],[-19.490429687499983,77.71889648437497],[-20.680810546875023,77.61899414062503],[-18.337255859374977,76.92119140624999],[-22.606640624999955,76.68076171875003],[-19.86289062499992,76.12065429687505],[-19.52636718750003,75.18022460937505],[-22.232861328124926,75.11972656249998],[-20.985791015624983,75.07436523437497],[-20.86157226562497,74.63593750000001],[-19.98491210937499,74.9751953125],[-19.271582031249977,74.342626953125],[-22.334326171875006,74.28637695312503],[-20.36728515624992,73.8482421875],[-20.63671875,73.46357421874998],[-25.521289062500017,73.85161132812499],[-24.7783203125,73.539892578125],[-27.561621093750006,73.13847656250002],[-24.132666015625006,73.40937],[-22.036328124999955,72.91845703125006],[-22.29321289062497,72.11953125],[-24.629980468749977,73.03764648437499],[-26.657617187499966,72.71582031249997],[-24.81333007812492,72.90151367187497],[-25.203710937499977,72.39296875000002],[-21.959667968749955,71.74467773437502],[-22.479638671874937,71.38344726562497],[-21.75224609374999,71.47832031250002],[-21.522656249999926,70.52622070312503],[-22.38413085937492,70.46240234375],[-22.437011718749943,70.860009765625],[-23.327832031249983,70.45097656250007],[-24.562207031249926,71.22353515624997],[-27.08720703124999,71.6265625],[-25.667578124999977,71.26533203124995],[-28.39843749999997,70.99291992187497],[-27.979296875000017,70.839501953125],[-29.07207031249999,70.444970703125],[-26.508398437500034,70.396630859375],[-27.384179687500023,69.9916015625],[-22.20659179687499,70.10791015624997],[-26.48291015624997,68.67592773437502],[-30.97856445312499,68.06132812500005],[-32.32744140624999,68.43730468749999],[-32.16455078125,67.99111328125002],[-34.63281249999997,66.43476562499995],[-37.75419921874996,65.59306640624999],[-37.278710937499994,66.30439453124995],[-38.156640624999966,66.38559570312498],[-37.98916015624994,66.32265625000002],[-37.75234375000002,66.26152343750002],[-38.52036132812498,66.00966796875002],[-38.20336914062497,65.71171874999999],[-40.17353515624998,65.55615234375],[-40.19155273437502,65.52250976562499],[-39.655957031249955,65.36889648437497],[-39.57792968749996,65.34077148437501],[-41.08867187499999,65.03535156249995],[-40.18222656249998,64.47993164062495],[-41.581005859374926,64.29833984375],[-40.550390625000034,63.72524414062505],[-41.387890624999926,63.06186523437498],[-42.174511718749955,63.20878906249999],[-41.63447265624998,62.972460937500074],[-41.64360351562499,62.915869140625006],[-41.72324218749995,62.89125976562505],[-41.90898437499996,62.73710937499999],[-42.94165039062503,62.72021484375003],[-42.15297851562502,62.568457031250006],[-42.110205078125006,61.857226562500074],[-43.04409179687502,60.523681640625],[-43.92270507812495,60.59536132812502],[-43.122900390625006,60.06123046875001],[-43.90654296874996,59.815478515625045],[-44.412939453125006,59.922607421875],[-44.22436523437494,60.273535156250006],[-45.37924804687495,60.20292968750002],[-44.756738281249966,60.66459960937502],[-46.04663085937503,60.61572265625],[-45.87021484374998,61.21831054687502],[-48.180810546874966,60.76923828125001],[-47.77031249999999,60.99775390625001],[-49.28906249999997,61.58994140625006],[-48.82871093749998,62.0796875],[-50.319238281249966,62.473193359375045],[-49.793115234374994,63.04462890625004],[-50.09223632812498,62.976757812499955],[-50.338330078124955,62.82875976562502],[-50.39008789062501,62.82202148437497],[-51.547509765624994,64.00610351562497],[-50.260693359374955,64.21425781250002],[-51.70786132812498,64.205078125],[-50.12163085937493,64.703759765625],[-50.96064453124998,65.20112304687498],[-50.721582031249966,64.79760742187503],[-51.92260742187503,64.21875],[-52.537695312500034,65.32880859374998],[-51.091894531250006,65.77578125],[-52.55126953125003,65.46137695312498],[-53.39204101562498,66.04833984375],[-51.225,66.88154296875001],[-53.614697265624955,66.15449218749995],[-52.38686523437502,66.88115234375005],[-53.687158203124994,66.986474609375],[-53.88442382812502,67.13554687499999],[-53.80546875000002,67.32690429687497],[-53.79858398437494,67.41816406250001],[-50.613476562499955,67.5279296875],[-53.735205078125006,67.54902343750004],[-53.151562499999926,68.20776367187503],[-51.16914062500001,68.38520507812504],[-53.38315429687495,68.29736328124997],[-53.33740234374997,68.35214843750003],[-53.21328125,68.41298828125],[-53.03945312500002,68.61088867187499],[-51.13330078125,68.59843750000005],[-51.084863281249994,69.12827148437498],[-50.79228515624996,69.11684570312505],[-50.392675781250006,69.13740234374998],[-50.29736328124994,69.17060546874998],[-51.07695312499996,69.20947265625],[-50.32294921875001,70.02714843750005],[-54.53076171875,70.69926757812502],[-50.68212890625,70.39687],[-51.77431640625002,71.01044921875001],[-51.018945312499966,71.001318359375],[-53.117041015625006,71.31289062499997],[-51.77861328125002,71.68291015625005],[-53.44008789062502,71.57900390625002],[-53.65214843749996,72.36264648437506],[-53.96298828124995,71.45898437499997],[-55.59404296874999,71.55351562500005],[-54.84013671874996,72.35610351562497],[-55.60170898437494,72.453466796875],[-54.737939453124994,72.87250976562501],[-55.66855468749998,73.00791015624998],[-55.288281249999955,73.32709960937498],[-56.10405273437496,73.55815429687499],[-56.22539062499999,74.12910156249995],[-57.23056640624995,74.12529296875007],[-56.25546874999998,74.52680664062498],[-58.51621093749995,75.68906250000006],[-63.29130859374996,76.35205078125003],[-68.31728515625,76.09077148437501],[-69.48408203125001,76.39916992187503],[-68.1142578125,76.65063476562503],[-71.15488281249995,77.073876953125],[-66.26645507812498,77.51538085937497],[-69.35136718749999,77.467138671875],[-72.81806640624995,78.1943359375],[-65.82553710937503,79.17373046874997],[-64.17915039062498,80.09926757812497],[-67.19316406249993,80.28007812500002],[-61.43598632812498,81.13359375000002],[-60.43237304687497,81.92016601562503],[-56.615136718749994,81.362890625],[-59.26801757812498,81.98208007812502],[-54.54887695312496,82.35063476562505],[-53.671337890624955,82.16406249999997],[-53.55566406250003,81.65327148437501],[-53.022558593750034,82.32172851562504],[-49.54106445312496,81.91806640625003],[-50.98994140625001,82.46015624999998],[-50.81953125000001,82.47407226562498],[-50.03710937499994,82.472412109375],[-44.7294921875,81.77983398437505],[-44.3265625,82.47172851562505],[-44.57724609374998,82.542626953125],[-45.55244140624998,82.725244140625],[-45.55654296875002,82.74702148437498],[-41.36962890625003,82.75],[-46.47817382812502,82.95190429687497],[-30.70292968749996,83.59340820312502],[-29.952880859375,83.56484374999997]]]]}}]}